ONEWEB-0160             
1 48060U 21025U   23269.71710796 -.00000292  00000+0 -83541-3 0  9996
2 48060  87.9061 158.0949 0002618  92.2789 267.8640 13.13471518123015
ONEWEB-0163             
1 48061U 21025V   23269.77847710  .00000151  00000+0  37973-3 0  9990
2 48061  87.9069 158.0734 0001591  62.6859 297.4431 13.13471693123149
ONEWEB-0159             
1 48062U 21025W   23269.76791351  .00000377  00000+0  99669-3 0  9999
2 48062  87.8993 158.0754 0001530  80.2272 279.9030 13.13470440123065
ONEWEB-0164             
1 48063U 21025X   23269.74885426  .00000218  00000+0  56269-3 0  9998
2 48063  87.9068 158.0744 0001958  71.8257 288.3086 13.13469853123041
ONEWEB-0167             
1 48064U 21025Y   23269.70334291  .00000020  00000+0  20235-4 0  9990
2 48064  87.9069 158.0925 0001664  68.9803 291.1504 13.13473133123023
ONEWEB-0166             
1 48065U 21025Z   23269.72558324 -.00000285  00000+0 -81604-3 0  9999
2 48065  87.9066 158.0817 0001551  77.8816 282.2486 13.13470373123101
ONEWEB-0151             
1 48066U 21025AA  23269.72769435 -.00000244  00000+0 -70200-3 0  9992
2 48066  87.9068 158.0885 0002073  72.0565 288.0790 13.13469265123040
ONEWEB-0170             
1 48067U 21025AB  23269.73404000 -.00000140  00000+0 -41743-3 0  9993
2 48067  87.9069 158.0870 0002532  75.7514 284.3896 13.13469581123003
